FENGYUN 3D              
1 43010U 17072A   26160.25417875  .00000360  00000+0  19194-3 0  9994
2 43010  99.0126 134.5334 0002646  74.4231 285.7237 14.19739150443868
NOAA 20 (JPSS-1)        
1 43013U 17073A   26160.24782901  .00000045  00000+0  42449-4 0  9992
2 43013  98.7771  99.7811 0000433  43.6120 316.5091 14.19510320443342
GOES 17                 
1 43226U 18022A   26160.25287104 -.00000166  00000+0  00000+0 0  9996
2 43226   0.9160  85.8579 0000575  13.4824 159.8381  1.00271569 30342
SENTINEL-3B             
1 43437U 18039A   26160.19489508  .00000093  00000+0  56315-4 0  9996
2 43437  98.6249 227.8417 0000843  78.6879 281.4396 14.26739527422986
FENGYUN 2H              
1 43491U 18050A   26160.07241723 -.00000114  00000+0  00000+0 0  9991
2 43491   3.0094  79.1692 0001581 126.3944 157.4108  1.00271216 29352
METOP-C                 
1 43689U 18087A   26160.25503990  .00000078  00000+0  55251-4 0  9998
2 43689  98.6646 220.0033 0001467 138.4112 221.7178 14.21509944393708
GEO-KOMPSAT-2A          
1 43823U 18100A   26160.29595498 -.00000327  00000+0  00000+0 0  9997
2 43823   0.0511 131.7130 0002259 312.7712  47.9947  1.00270247 27558
METEOR-M2 2             
1 44387U 19038A   26160.23660537  .00000147  00000+0  83306-4 0  9999
2 44387  98.9148 147.4049 0002300  59.8391 300.3015 14.24363928360166
ARKTIKA-M 1             
1 47719U 21016A   26153.03917935 -.00000200  00000+0  00000+0 0  9993
2 47719  63.2379  59.8266 7283239 269.8643  14.6915  2.00628509 38489
FENGYUN 3E              
1 49008U 21062A   26160.30939807 -.00000163  00000+0 -56186-4 0  9997
2 49008  98.7498 163.8054 0002787  98.4957 261.6536 14.19903004255463
GOES 18                 
1 51850U 22021A   26160.24342434  .00000114  00000+0  00000+0 0  9991
2 51850   0.0417 133.7907 0000469   6.9207  67.5412  1.00270946  6512
NOAA 21 (JPSS-2)        
1 54234U 22150A   26160.28102018  .00000050  00000+0  44519-4 0  9996
2 54234  98.7059  99.2030 0001195 173.1203 186.9989 14.19564110185426
METEOSAT-12 (MTG-I1)    
1 54743U 22170C   26160.28516881  .00000008  00000+0  00000+0 0  9995
2 54743   0.7291  21.5687 0003363  71.4973 266.8315  1.00271639 12899
TIANMU-1 03             
1 55973U 23039A   26160.28903954  .00013534  00000+0  26923-3 0  9991
2 55973  97.5236 333.9510 0004164 118.8528 241.3140 15.47059566179612
TIANMU-1 04             
1 55974U 23039B   26160.28154804  .00014384  00000+0  28021-3 0  9999
2 55974  97.5172 333.0964 0004751 115.8775 244.2965 15.47649760179628
TIANMU-1 05             
1 55975U 23039C   26160.26942733  .00013333  00000+0  26595-3 0  9991
2 55975  97.5216 333.5486 0003807 133.3094 226.8473 15.46984779179599
TIANMU-1 06             
1 55976U 23039D   26160.28444362  .00014058  00000+0  27483-3 0  9991
2 55976  97.5225 334.1918 0004084 130.3251 229.8356 15.47556492179622
FENGYUN 3G              
1 56232U 23055A   26160.12520916  .00022526  00000+0  34170-3 0  9998
2 56232  49.9935  27.5514 0005565 167.7824 192.3280 15.54457419178757
METEOR-M2 3             
1 57166U 23091A   26160.29935441 -.00000011  00000+0  14053-4 0  9991
2 57166  98.6092 215.4387 0003907 176.3081 183.8128 14.24046099153397
TIANMU-1 07             
1 57399U 23101A   26160.31611659  .00005376  00000+0  18930-3 0  9991
2 57399  97.2598 211.1655 0003663 137.9113 222.2409 15.29715510160441
TIANMU-1 08             
1 57400U 23101B   26160.21736714  .00005264  00000+0  18535-3 0  9990
2 57400  97.2587 210.8408 0005208 134.5434 225.6233 15.29718855160425
TIANMU-1 09             
1 57401U 23101C   26160.20093517  .00005676  00000+0  19953-3 0  9999
2 57401  97.2545 210.2447 0004029 145.3529 214.7975 15.29747716160422
TIANMU-1 10             
1 57402U 23101D   26160.23383813  .00005679  00000+0  19976-3 0  9992
2 57402  97.2625 211.3192 0005633 147.1592 212.9999 15.29718887160426
FENGYUN 3F              
1 57490U 23111A   26160.29349851  .00000046  00000+0  42234-4 0  9997
2 57490  98.6841 230.4490 0001583  98.8814 261.2542 14.19937779147742
ARKTIKA-M 2             
1 58584U 23198A   26154.30372208  .00000150  00000+0  00000+0 0  9990
2 58584  63.2209 155.9142 6898549 267.4684  18.7857  2.00591941 18047
TIANMU-1 11             
1 58645U 23205A   26160.32074014  .00004917  00000+0  18856-3 0  9997
2 58645  97.3453 182.0014 0009861  42.5464 317.6537 15.26913389136320
TIANMU-1 12             
1 58646U 23205B   26160.29091392  .00005089  00000+0  19539-3 0  9992
2 58646  97.3442 181.7294 0007715  30.3276 329.8408 15.26875216136303
TIANMU-1 13             
1 58647U 23205C   26160.32234163  .00005053  00000+0  19492-3 0  9991
2 58647  97.3469 182.0317 0006867  10.8440 349.2946 15.26730062136308
TIANMU-1 14             
1 58648U 23205D   26160.30777748  .00004888  00000+0  18836-3 0  9997
2 58648  97.3405 181.2054 0007846  14.3183 345.8277 15.26774675136306
TIANMU-1 19             
1 58660U 23208A   26160.31587812  .00006936  00000+0  23086-3 0  9995
2 58660  97.4491 276.5769 0004494   1.0180 359.1069 15.31454490136126
