OBJECT_NAME,OBJECT_ID,EPOCH,MEAN_MOTION,ECCENTRICITY,INCLINATION,RA_OF_ASC_NODE,ARG_OF_PERICENTER,MEAN_ANOMALY,EPHEMERIS_TYPE,CLASSIFICATION_TYPE,NORAD_CAT_ID,ELEMENT_SET_NO,REV_AT_EPOCH,BSTAR,MEAN_MOTION_DOT,MEAN_MOTION_DDOT
FENGYUN 3D,2017-072A,2026-06-09T06:06:01.044000,14.19739150,.00026462,99.0126,134.5334,74.4231,285.7237,0,U,43010,999,44386,.19193939E-3,.36E-5,0
NOAA 20 (JPSS-1),2017-073A,2026-06-09T05:56:52.426464,14.19510320,.00004335,98.7771,99.7811,43.6120,316.5091,0,U,43013,999,44334,.42449476E-4,.45E-6,0
GOES 17,2018-022A,2026-06-09T06:04:08.057856,1.00271569,.00005754,0.9160,85.8579,13.4824,159.8381,0,U,43226,999,3034,0,-.166E-5,0
SENTINEL-3B,2018-039A,2026-06-09T04:40:38.934912,14.26739527,.00008433,98.6249,227.8417,78.6879,281.4396,0,U,43437,999,42298,.56314735E-4,.93E-6,0
FENGYUN 2H,2018-050A,2026-06-09T01:44:16.848672,1.00271216,.00015814,3.0094,79.1692,126.3944,157.4108,0,U,43491,999,2935,0,-.114E-5,0
METOP-C,2018-087A,2026-06-09T06:07:15.447360,14.21509944,.00014678,98.6646,220.0033,138.4112,221.7178,0,U,43689,999,39370,.55251425E-4,.78E-6,0
GEO-KOMPSAT-2A,2018-100A,2026-06-09T07:06:10.510272,1.00270247,.00022599,0.0511,131.7130,312.7712,47.9947,0,U,43823,999,2755,0,-.327E-5,0
METEOR-M2 2,2019-038A,2026-06-09T05:40:42.703968,14.24363928,.00023005,98.9148,147.4049,59.8391,300.3015,0,U,44387,999,36016,.83306042E-4,.147E-5,0
ARKTIKA-M 1,2021-016A,2026-06-02T00:56:25.095840,2.00628509,.72832396,63.2379,59.8266,269.8643,14.6915,0,U,47719,999,3848,0,-.2E-5,0
FENGYUN 3E,2021-062A,2026-06-09T07:25:31.993248,14.19903004,.00027876,98.7498,163.8054,98.4957,261.6536,0,U,49008,999,25546,-.56186155E-4,-.163E-5,0
GOES 18,2022-021A,2026-06-09T05:50:31.862976,1.00270946,.00004698,0.0417,133.7907,6.9207,67.5412,0,U,51850,999,651,0,.114E-5,0
NOAA 21 (JPSS-2),2022-150A,2026-06-09T06:44:40.143552,14.19564110,.0001195,98.7059,99.2030,173.1203,186.9989,0,U,54234,999,18542,.44518616E-4,.5E-6,0
METEOSAT-12 (MTG-I1),2022-170C,2026-06-09T06:50:38.585184,1.00271639,.00033634,0.7291,21.5687,71.4973,266.8315,0,U,54743,999,1289,0,.8E-7,0
TIANMU-1 03,2023-039A,2026-06-09T06:56:13.016256,15.47059566,.00041645,97.5236,333.9510,118.8528,241.3140,0,U,55973,999,17961,.26923148E-3,.13534E-3,0
TIANMU-1 04,2023-039B,2026-06-09T06:45:25.750656,15.47649760,.00047516,97.5172,333.0964,115.8775,244.2965,0,U,55974,999,17962,.28021057E-3,.14384E-3,0
TIANMU-1 05,2023-039C,2026-06-09T06:27:58.521312,15.46984779,.00038079,97.5216,333.5486,133.3094,226.8473,0,U,55975,999,17959,.26595334E-3,.13333E-3,0
TIANMU-1 06,2023-039D,2026-06-09T06:49:35.928768,15.47556492,.00040841,97.5225,334.1918,130.3251,229.8356,0,U,55976,999,17962,.27482629E-3,.14058E-3,0
FENGYUN 3G,2023-055A,2026-06-09T03:00:18.071424,15.54457419,.0005565,49.9935,27.5514,167.7824,192.3280,0,U,56232,999,17875,.34170294E-3,.22526E-3,0
METEOR-M2 3,2023-091A,2026-06-09T07:11:04.221024,14.24046099,.00039072,98.6092,215.4387,176.3081,183.8128,0,U,57166,999,15339,.14053195E-4,-.11E-6,0
TIANMU-1 07,2023-101A,2026-06-09T07:35:12.473376,15.29715510,.00036633,97.2598,211.1655,137.9113,222.2409,0,U,57399,999,16044,.18930203E-3,.5376E-4,0
TIANMU-1 08,2023-101B,2026-06-09T05:13:00.520896,15.29718855,.00052083,97.2587,210.8408,134.5434,225.6233,0,U,57400,999,16042,.18534987E-3,.5264E-4,0
TIANMU-1 09,2023-101C,2026-06-09T04:49:20.798688,15.29747716,.00040296,97.2545,210.2447,145.3529,214.7975,0,U,57401,999,16042,.19953385E-3,.5676E-4,0
TIANMU-1 10,2023-101D,2026-06-09T05:36:43.614432,15.29718887,.0005633,97.2625,211.3192,147.1592,212.9999,0,U,57402,999,16042,.19976217E-3,.5679E-4,0
FENGYUN 3F,2023-111A,2026-06-09T07:02:38.271264,14.19937779,.00015832,98.6841,230.4490,98.8814,261.2542,0,U,57490,999,14774,.4223386E-4,.46E-6,0
ARKTIKA-M 2,2023-198A,2026-06-03T07:17:21.587712,2.00591941,.68985494,63.2209,155.9142,267.4684,18.7857,0,U,58584,999,1804,0,.15E-5,0
TIANMU-1 11,2023-205A,2026-06-09T07:41:51.948096,15.26913389,.00098616,97.3453,182.0014,42.5464,317.6537,0,U,58645,999,13632,.18855741E-3,.4917E-4,0
TIANMU-1 12,2023-205B,2026-06-09T06:58:54.962688,15.26875216,.00077156,97.3442,181.7294,30.3276,329.8408,0,U,58646,999,13630,.19539306E-3,.5089E-4,0
TIANMU-1 13,2023-205C,2026-06-09T07:44:10.316832,15.26730062,.0006867,97.3469,182.0317,10.8440,349.2946,0,U,58647,999,13630,.19491907E-3,.5053E-4,0
TIANMU-1 14,2023-205D,2026-06-09T07:23:11.974272,15.26774675,.00078463,97.3405,181.2054,14.3183,345.8277,0,U,58648,999,13630,.18836369E-3,.4888E-4,0
TIANMU-1 19,2023-208A,2026-06-09T07:34:51.869568,15.31454490,.00044947,97.4491,276.5769,1.0180,359.1069,0,U,58660,999,13612,.23086394E-3,.6936E-4,0
